{
  "type": "FeatureCollection",
  "features": [
    {
      "type": "Feature",
      "properties": {
        "norad_id": 34350,
        "name": "IRIDIUM 33 DEB",
        "group": "iridium-33-debris",
        "lat": 84.35697644296842,
        "lon": 41.217417850507296,
        "alt_km": 719.621393987024,
        "timestamp": "2025-12-17T15:50:10.166096+00:00",
        "meta_object_name": "IRIDIUM 33 DEB",
        "meta_object_id": "1997-051ES",
        "meta_epoch": "2025-12-17T00:37:11.228160",
        "meta_mean_motion": 14.45396916,
        "meta_eccentricity": 0.00231541,
        "meta_inclination": 86.3273,
        "meta_ra_of_asc_node": 0.9473,
        "meta_arg_of_pericenter": 121.9574,
        "meta_mean_anomaly": 266.9633,
        "meta_ephemeris_type": 0,
        "meta_classification_type": "U",
        "meta_norad_cat_id": 34350,
        "meta_element_set_no": 999,
        "meta_rev_at_epoch": 88355,
        "meta_bstar": 0.00028573601,
        "meta_mean_motion_dot": 1.028e-05,
        "meta_mean_motion_ddot": 0,
        "tle_line1": "1 34350U 97051ES  25351.02582440  .00001028  00000+0  28574-3 0  9997",
        "tle_line2": "2 34350  86.3273   0.9473 0023154 121.9574 266.9633 14.45396916883555"
      },
      "geometry": {
        "type": "Point",
        "coordinates": [
          41.217417850507296,
          84.35697644296842
        ]
      }
    },
    {
      "type": "Feature",
      "properties": {
        "norad_id": 34366,
        "name": "IRIDIUM 33 DEB",
        "group": "iridium-33-debris",
        "lat": -27.787744408451186,
        "lon": -130.90890407059788,
        "alt_km": 716.3515404977461,
        "timestamp": "2025-12-17T15:50:10.166107+00:00",
        "meta_object_name": "IRIDIUM 33 DEB",
        "meta_object_id": "1997-051FJ",
        "meta_epoch": "2025-12-17T05:16:01.360416",
        "meta_mean_motion": 14.54094749,
        "meta_eccentricity": 0.00227114,
        "meta_inclination": 86.37,
        "meta_ra_of_asc_node": 47.3655,
        "meta_arg_of_pericenter": 125.6482,
        "meta_mean_anomaly": 298.0376,
        "meta_ephemeris_type": 0,
        "meta_classification_type": "U",
        "meta_norad_cat_id": 34366,
        "meta_element_set_no": 999,
        "meta_rev_at_epoch": 88247,
        "meta_bstar": 0.00070237331,
        "meta_mean_motion_dot": 2.996e-05,
        "meta_mean_motion_ddot": 0,
        "tle_line1": "1 34366U 97051FJ  25351.21946019  .00002996  00000+0  70237-3 0  9999",
        "tle_line2": "2 34366  86.3700  47.3655 0022711 125.6482 298.0376 14.54094749882470"
      },
      "geometry": {
        "type": "Point",
        "coordinates": [
          -130.90890407059788,
          -27.787744408451186
        ]
      }
    },
    {
      "type": "Feature",
      "properties": {
        "norad_id": 34375,
        "name": "IRIDIUM 33 DEB",
        "group": "iridium-33-debris",
        "lat": -25.660535341256406,
        "lon": 2.4340590609019706,
        "alt_km": 842.6339737828557,
        "timestamp": "2025-12-17T15:50:10.166118+00:00",
        "meta_object_name": "IRIDIUM 33 DEB",
        "meta_object_id": "1997-051FT",
        "meta_epoch": "2025-12-17T07:15:02.496672",
        "meta_mean_motion": 14.18000807,
        "meta_eccentricity": 0.01035589,
        "meta_inclination": 86.4323,
        "meta_ra_of_asc_node": 180.8607,
        "meta_arg_of_pericenter": 112.4496,
        "meta_mean_anomaly": 66.9767,
        "meta_ephemeris_type": 0,
        "meta_classification_type": "U",
        "meta_norad_cat_id": 34375,
        "meta_element_set_no": 999,
        "meta_rev_at_epoch": 86776,
        "meta_bstar": 0.0003707237,
        "meta_mean_motion_dot": 8.2e-06,
        "meta_mean_motion_ddot": 0,
        "tle_line1": "1 34375U 97051FT  25351.30211223  .00000820  00000+0  37072-3 0  9995",
        "tle_line2": "2 34375  86.4323 180.8607 0103558 112.4496  66.9767 14.18000807867763"
      },
      "geometry": {
        "type": "Point",
        "coordinates": [
          2.4340590609019706,
          -25.660535341256406
        ]
      }
    },
    {
      "type": "Feature",
      "properties": {
        "norad_id": 34376,
        "name": "IRIDIUM 33 DEB",
        "group": "iridium-33-debris",
        "lat": -73.64027840279269,
        "lon": -8.4131013207709,
        "alt_km": 706.0580758037177,
        "timestamp": "2025-12-17T15:50:10.166129+00:00",
        "meta_object_name": "IRIDIUM 33 DEB",
        "meta_object_id": "1997-051FU",
        "meta_epoch": "2025-12-17T01:23:54.638592",
        "meta_mean_motion": 14.62628406,
        "meta_eccentricity": 0.00276949,
        "meta_inclination": 86.2981,
        "meta_ra_of_asc_node": 4.5987,
        "meta_arg_of_pericenter": 152.3337,
        "meta_mean_anomaly": 207.9355,
        "meta_ephemeris_type": 0,
        "meta_classification_type": "U",
        "meta_norad_cat_id": 34376,
        "meta_element_set_no": 999,
        "meta_rev_at_epoch": 88070,
        "meta_bstar": 0.0011026478,
        "meta_mean_motion_dot": 5.657e-05,
        "meta_mean_motion_ddot": 0,
        "tle_line1": "1 34376U 97051FU  25351.05827128  .00005657  00000+0  11026-2 0  9998",
        "tle_line2": "2 34376  86.2981   4.5987 0027694 152.3337 207.9355 14.62628406880707"
      },
      "geometry": {
        "type": "Point",
        "coordinates": [
          -8.4131013207709,
          -73.64027840279269
        ]
      }
    },
    {
      "type": "Feature",
      "properties": {
        "norad_id": 34486,
        "name": "IRIDIUM 33 DEB",
        "group": "iridium-33-debris",
        "lat": 11.262771135611663,
        "lon": 10.473783423357686,
        "alt_km": 580.1821248164406,
        "timestamp": "2025-12-17T15:50:10.166141+00:00",
        "meta_object_name": "IRIDIUM 33 DEB",
        "meta_object_id": "1997-051GB",
        "meta_epoch": "2025-12-17T01:34:32.789856",
        "meta_mean_motion": 14.95995352,
        "meta_eccentricity": 0.00138977,
        "meta_inclination": 86.393,
        "meta_ra_of_asc_node": 10.0283,
        "meta_arg_of_pericenter": 100.1337,
        "meta_mean_anomaly": 313.5239,
        "meta_ephemeris_type": 0,
        "meta_classification_type": "U",
        "meta_norad_cat_id": 34486,
        "meta_element_set_no": 999,
        "meta_rev_at_epoch": 89051,
        "meta_bstar": 0.0017072639,
        "meta_mean_motion_dot": 0.00019234,
        "meta_mean_motion_ddot": 0,
        "tle_line1": "1 34486U 97051GB  25351.06565729  .00019234  00000+0  17073-2 0  9991",
        "tle_line2": "2 34486  86.3930  10.0283 0013897 100.1337 313.5239 14.95995352890514"
      },
      "geometry": {
        "type": "Point",
        "coordinates": [
          10.473783423357686,
          11.262771135611663
        ]
      }
    },
    {
      "type": "Feature",
      "properties": {
        "norad_id": 34487,
        "name": "IRIDIUM 33 DEB",
        "group": "iridium-33-debris",
        "lat": 4.715629480423902,
        "lon": -170.04331297082692,
        "alt_km": 739.227559803061,
        "timestamp": "2025-12-17T15:50:10.166152+00:00",
        "meta_object_name": "IRIDIUM 33 DEB",
        "meta_object_id": "1997-051GC",
        "meta_epoch": "2025-12-17T08:26:40.670304",
        "meta_mean_motion": 14.43222071,
        "meta_eccentricity": 0.00330822,
        "meta_inclination": 86.3432,
        "meta_ra_of_asc_node": 10.3915,
        "meta_arg_of_pericenter": 114.0104,
        "meta_mean_anomaly": 261.6876,
        "meta_ephemeris_type": 0,
        "meta_classification_type": "U",
        "meta_norad_cat_id": 34487,
        "meta_element_set_no": 999,
        "meta_rev_at_epoch": 88315,
        "meta_bstar": 0.00016017609,
        "meta_mean_motion_dot": 5.62e-06,
        "meta_mean_motion_ddot": 0,
        "tle_line1": "1 34487U 97051GC  25351.35185961  .00000562  00000+0  16018-3 0  9993",
        "tle_line2": "2 34487  86.3432  10.3915 0033082 114.0104 261.6876 14.43222071883157"
      },
      "geometry": {
        "type": "Point",
        "coordinates": [
          -170.04331297082692,
          4.715629480423902
        ]
      }
    },
    {
      "type": "Feature",
      "properties": {
        "norad_id": 34488,
        "name": "IRIDIUM 33 DEB",
        "group": "iridium-33-debris",
        "lat": -58.62982580349876,
        "lon": 129.429452711553,
        "alt_km": 488.93157243195765,
        "timestamp": "2025-12-17T15:50:10.166163+00:00",
        "meta_object_name": "IRIDIUM 33 DEB",
        "meta_object_id": "1997-051GD",
        "meta_epoch": "2025-12-17T06:57:02.777472",
        "meta_mean_motion": 15.30547446,
        "meta_eccentricity": 0.00117976,
        "meta_inclination": 86.3226,
        "meta_ra_of_asc_node": 303.5578,
        "meta_arg_of_pericenter": 43.8591,
        "meta_mean_anomaly": 316.3592,
        "meta_ephemeris_type": 0,
        "meta_classification_type": "U",
        "meta_norad_cat_id": 34488,
        "meta_element_set_no": 999,
        "meta_rev_at_epoch": 89309,
        "meta_bstar": 0.0036319963,
        "meta_mean_motion_dot": 0.00108809,
        "meta_mean_motion_ddot": 0,
        "tle_line1": "1 34488U 97051GD  25351.28961548  .00108809  00000+0  36320-2 0  9999",
        "tle_line2": "2 34488  86.3226 303.5578 0011797  43.8591 316.3592 15.30547446893099"
      },
      "geometry": {
        "type": "Point",
        "coordinates": [
          129.429452711553,
          -58.62982580349876
        ]
      }
    }
  ]
}